{"type": "FeatureCollection", "features": [ {"type": "Feature", "properties": {"norad_id": 43058, "name": "GSAT0218 (GALILEO 22)", "group": "galileo", "lat": -55.06428074531217, "lon": 132.51571923473512, "alt_km": 23221.480713885223, "timestamp": "2025-12-07T18:50:16.978912+00:00", "meta": {"OBJECT_NAME": "GSAT0218 (GALILEO 22)", "OBJECT_ID": "2017-079D", "EPOCH": "2025-12-06T18:17:46.482720", "MEAN_MOTION": 1.70473862, "ECCENTRICITY": 0.00028449, "INCLINATION": 55.1307, "RA_OF_ASC_NODE": 226.7982, "ARG_OF_PERICENTER": 305.5375, "MEAN_ANOMALY": 54.5328, "EPHEMERIS_TYPE": 0, "CLASSIFICATION_TYPE": "U", "NORAD_CAT_ID": 43058, "ELEMENT_SET_NO": 999, "REV_AT_EPOCH": 4973, "BSTAR": 0, "MEAN_MOTION_DOT": 2.9e-07, "MEAN_MOTION_DDOT": 0}, "tle": {"line1": "1 43058U 17079D   25340.76234355  .00000029  00000+0  00000+0 0  9992", "line2": "2 43058  55.1307 226.7982 0002844 305.5375  54.5328  1.70473862 49733"}}, "geometry": {"type": "Point", "coordinates": [132.51571923473512, -55.06428074531217]}}, {"type": "Feature", "properties": {"norad_id": 43564, "name": "GSAT0221 (GALILEO 25)", "group": "galileo", "lat": -26.9668258635402, "lon": -32.18502700425422, "alt_km": 23211.71834837895, "timestamp": "2025-12-07T18:50:16.978923+00:00", "meta": {"OBJECT_NAME": "GSAT0221 (GALILEO 25)", "OBJECT_ID": "2018-060A", "EPOCH": "2025-12-06T15:57:28.986048", "MEAN_MOTION": 1.70475679, "ECCENTRICITY": 0.00066883, "INCLINATION": 57.2291, "RA_OF_ASC_NODE": 346.9817, "ARG_OF_PERICENTER": 281.5609, "MEAN_ANOMALY": 78.3858, "EPHEMERIS_TYPE": 0, "CLASSIFICATION_TYPE": "U", "NORAD_CAT_ID": 43564, "ELEMENT_SET_NO": 999, "REV_AT_EPOCH": 4588, "BSTAR": 0, "MEAN_MOTION_DOT": -8.1e-07, "MEAN_MOTION_DDOT": 0}, "tle": {"line1": "1 43564U 18060A   25340.66491882 -.00000081  00000+0  00000+0 0  9993", "line2": "2 43564  57.2291 346.9817 0006688 281.5609  78.3858  1.70475679 45887"}}, "geometry": {"type": "Point", "coordinates": [-32.18502700425422, -26.9668258635402]}}, {"type": "Feature", "properties": {"norad_id": 43565, "name": "GSAT0222 (GALILEO 26)", "group": "galileo", "lat": -10.629546751164298, "lon": 173.89733703176395, "alt_km": 23217.053091490503, "timestamp": "2025-12-07T18:50:16.978934+00:00", "meta": {"OBJECT_NAME": "GSAT0222 (GALILEO 26)", "OBJECT_ID": "2018-060B", "EPOCH": "2025-12-05T17:03:57.438144", "MEAN_MOTION": 1.70475397, "ECCENTRICITY": 0.00061787, "INCLINATION": 57.2328, "RA_OF_ASC_NODE": 347.0105, "ARG_OF_PERICENTER": 261.4004, "MEAN_ANOMALY": 98.5552, "EPHEMERIS_TYPE": 0, "CLASSIFICATION_TYPE": "U", "NORAD_CAT_ID": 43565, "ELEMENT_SET_NO": 999, "REV_AT_EPOCH": 4591, "BSTAR": 0, "MEAN_MOTION_DOT": -7.7e-07, "MEAN_MOTION_DDOT": 0}, "tle": {"line1": "1 43565U 18060B   25339.71108146 -.00000077  00000+0  00000+0 0  9991", "line2": "2 43565  57.2328 347.0105 0006178 261.4004  98.5552  1.70475397 45917"}}, "geometry": {"type": "Point", "coordinates": [173.89733703176395, -10.629546751164298]}}, {"type": "Feature", "properties": {"norad_id": 43566, "name": "GSAT0219 (GALILEO 23)", "group": "galileo", "lat": 44.85523952874691, "lon": 26.817708340597466, "alt_km": 23228.03249628471, "timestamp": "2025-12-07T18:50:16.978945+00:00", "meta": {"OBJECT_NAME": "GSAT0219 (GALILEO 23)", "OBJECT_ID": "2018-060C", "EPOCH": "2025-12-05T22:22:25.031424", "MEAN_MOTION": 1.70475627, "ECCENTRICITY": 0.00057672, "INCLINATION": 57.232, "RA_OF_ASC_NODE": 347.0061, "ARG_OF_PERICENTER": 285.4394, "MEAN_ANOMALY": 74.5216, "EPHEMERIS_TYPE": 0, "CLASSIFICATION_TYPE": "U", "NORAD_CAT_ID": 43566, "ELEMENT_SET_NO": 999, "REV_AT_EPOCH": 4589, "BSTAR": 0, "MEAN_MOTION_DOT": -7.8e-07, "MEAN_MOTION_DDOT": 0}, "tle": {"line1": "1 43566U 18060C   25339.93223416 -.00000078  00000+0  00000+0 0  9995", "line2": "2 43566  57.2320 347.0061 0005767 285.4394  74.5216  1.70475627 45896"}}, "geometry": {"type": "Point", "coordinates": [26.817708340597466, 44.85523952874691]}}, {"type": "Feature", "properties": {"norad_id": 43567, "name": "GSAT0220 (GALILEO 24)", "group": "galileo", "lat": -55.49508447392634, "lon": -82.62451434548545, "alt_km": 23209.71887200507, "timestamp": "2025-12-07T18:50:16.978956+00:00", "meta": {"OBJECT_NAME": "GSAT0220 (GALILEO 24)", "OBJECT_ID": "2018-060D", "EPOCH": "2025-12-04T23:31:11.369280", "MEAN_MOTION": 1.70475333, "ECCENTRICITY": 0.00061638, "INCLINATION": 57.2318, "RA_OF_ASC_NODE": 347.0321, "ARG_OF_PERICENTER": 281.7737, "MEAN_ANOMALY": 78.1861, "EPHEMERIS_TYPE": 0, "CLASSIFICATION_TYPE": "U", "NORAD_CAT_ID": 43567, "ELEMENT_SET_NO": 999, "REV_AT_EPOCH": 4586, "BSTAR": 0, "MEAN_MOTION_DOT": -7.4e-07, "MEAN_MOTION_DDOT": 0}, "tle": {"line1": "1 43567U 18060D   25338.97999270 -.00000074  00000+0  00000+0 0  9993", "line2": "2 43567  57.2318 347.0321 0006163 281.7737  78.1861  1.70475333 45861"}}, "geometry": {"type": "Point", "coordinates": [-82.62451434548545, -55.49508447392634]}}, {"type": "Feature", "properties": {"norad_id": 49809, "name": "GSAT0223 (GALILEO 27)", "group": "galileo", "lat": 10.211881592640324, "lon": -6.487764091909202, "alt_km": 23228.299940887213, "timestamp": "2025-12-07T18:50:16.978968+00:00", "meta": {"OBJECT_NAME": "GSAT0223 (GALILEO 27)", "OBJECT_ID": "2021-116A", "EPOCH": "2025-12-06T21:09:43.608672", "MEAN_MOTION": 1.70475531, "ECCENTRICITY": 0.00047238, "INCLINATION": 57.2205, "RA_OF_ASC_NODE": 346.871, "ARG_OF_PERICENTER": 250.5355, "MEAN_ANOMALY": 287.3218, "EPHEMERIS_TYPE": 0, "CLASSIFICATION_TYPE": "U", "NORAD_CAT_ID": 49809, "ELEMENT_SET_NO": 999, "REV_AT_EPOCH": 2490, "BSTAR": 0, "MEAN_MOTION_DOT": -8.2e-07, "MEAN_MOTION_DDOT": 0}, "tle": {"line1": "1 49809U 21116A   25340.88175473 -.00000082  00000+0  00000+0 0  9997", "line2": "2 49809  57.2205 346.8710 0004723 250.5355 287.3218  1.70475531 24902"}}, "geometry": {"type": "Point", "coordinates": [-6.487764091909202, 10.211881592640324]}}, {"type": "Feature", "properties": {"norad_id": 49810, "name": "GSAT0224 (GALILEO 28)", "group": "galileo", "lat": 43.700389890896005, "lon": 128.83063920753085, "alt_km": 23224.407495672418, "timestamp": "2025-12-07T18:50:16.978979+00:00", "meta": {"OBJECT_NAME": "GSAT0224 (GALILEO 28)", "OBJECT_ID": "2021-116B", "EPOCH": "2025-12-04T15:38:46.077216", "MEAN_MOTION": 1.70475512, "ECCENTRICITY": 0.00040562, "INCLINATION": 57.2223, "RA_OF_ASC_NODE": 346.9305, "ARG_OF_PERICENTER": 253.8254, "MEAN_ANOMALY": 108.1284, "EPHEMERIS_TYPE": 0, "CLASSIFICATION_TYPE": "U", "NORAD_CAT_ID": 49810, "ELEMENT_SET_NO": 999, "REV_AT_EPOCH": 2489, "BSTAR": 0, "MEAN_MOTION_DOT": -7.3e-07, "MEAN_MOTION_DDOT": 0}, "tle": {"line1": "1 49810U 21116B   25338.65192219 -.00000073  00000+0  00000+0 0  9998", "line2": "2 49810  57.2223 346.9305 0004056 253.8254 108.1284  1.70475512 24898"}}, "geometry": {"type": "Point", "coordinates": [128.83063920753085, 43.700389890896005]}}, {"type": "Feature", "properties": {"norad_id": 59598, "name": "GSAT0225 (GALILEO 29)", "group": "galileo", "lat": 46.743997921187194, "lon": -121.65102297040437, "alt_km": 23213.284097892847, "timestamp": "2025-12-07T18:50:16.978990+00:00", "meta": {"OBJECT_NAME": "GSAT0225 (GALILEO 29)", "OBJECT_ID": "2024-079A", "EPOCH": "2025-12-07T00:05:19.286016", "MEAN_MOTION": 1.70474541, "ECCENTRICITY": 0.00020154, "INCLINATION": 54.9982, "RA_OF_ASC_NODE": 106.4552, "ARG_OF_PERICENTER": 174.2572, "MEAN_ANOMALY": 183.4806, "EPHEMERIS_TYPE": 0, "CLASSIFICATION_TYPE": "U", "NORAD_CAT_ID": 59598, "ELEMENT_SET_NO": 999, "REV_AT_EPOCH": 1003, "BSTAR": 0, "MEAN_MOTION_DOT": 6e-08, "MEAN_MOTION_DDOT": 0}, "tle": {"line1": "1 59598U 24079A   25341.00369544  .00000006  00000+0  00000+0 0  9998", "line2": "2 59598  54.9982 106.4552 0002015 174.2572 183.4806  1.70474541 10031"}}, "geometry": {"type": "Point", "coordinates": [-121.65102297040437, 46.743997921187194]}}, {"type": "Feature", "properties": {"norad_id": 59600, "name": "GSAT0227 (GALILEO 30)", "group": "galileo", "lat": 3.818054041998117, "lon": 109.09815938515361, "alt_km": 23225.110839053457, "timestamp": "2025-12-07T18:50:16.979001+00:00", "meta": {"OBJECT_NAME": "GSAT0227 (GALILEO 30)", "OBJECT_ID": "2024-079C", "EPOCH": "2025-12-06T14:29:58.537536", "MEAN_MOTION": 1.70474646, "ECCENTRICITY": 0.00033412, "INCLINATION": 54.9931, "RA_OF_ASC_NODE": 106.4659, "ARG_OF_PERICENTER": 113.7646, "MEAN_ANOMALY": 246.2238, "EPHEMERIS_TYPE": 0, "CLASSIFICATION_TYPE": "U", "NORAD_CAT_ID": 59600, "ELEMENT_SET_NO": 999, "REV_AT_EPOCH": 1008, "BSTAR": 0, "MEAN_MOTION_DOT": 6e-08, "MEAN_MOTION_DDOT": 0}, "tle": {"line1": "1 59600U 24079C   25340.60414974  .00000006  00000+0  00000+0 0  9995", "line2": "2 59600  54.9931 106.4659 0003341 113.7646 246.2238  1.70474646 10088"}}, "geometry": {"type": "Point", "coordinates": [109.09815938515361, 3.818054041998117]}}, {"type": "Feature", "properties": {"norad_id": 61182, "name": "GSAT0232 (GALILEO 32)", "group": "galileo", "lat": -15.64606351919113, "lon": 57.77944582225888, "alt_km": 23218.212843585196, "timestamp": "2025-12-07T18:50:16.979012+00:00", "meta": {"OBJECT_NAME": "GSAT0232 (GALILEO 32)", "OBJECT_ID": "2024-167A", "EPOCH": "2025-12-04T05:35:38.594112", "MEAN_MOTION": 1.70473104, "ECCENTRICITY": 0.00021975, "INCLINATION": 55.2442, "RA_OF_ASC_NODE": 226.6647, "ARG_OF_PERICENTER": 213.7297, "MEAN_ANOMALY": 325.6534, "EPHEMERIS_TYPE": 0, "CLASSIFICATION_TYPE": "U", "NORAD_CAT_ID": 61182, "ELEMENT_SET_NO": 999, "REV_AT_EPOCH": 755, "BSTAR": 0, "MEAN_MOTION_DOT": 4.1e-07, "MEAN_MOTION_DDOT": 0}, "tle": {"line1": "1 61182U 24167A   25338.23308558  .00000041  00000+0  00000+0 0  9996", "line2": "2 61182  55.2442 226.6647 0002197 213.7297 325.6534  1.70473104  7557"}}, "geometry": {"type": "Point", "coordinates": [57.77944582225888, -15.64606351919113]}}]}